ATLAS CENTAUR 2         
1 00694U 63047A   26024.21903984  .00002185  00000+0  25805-3 0  9997
2 00694  30.3532  84.1403 0548169  48.4255 316.2035 14.11937800125336
THOR AGENA D R/B        
1 00733U 64002A   26024.28550625  .00000401  00000+0  16006-3 0  9992
2 00733  99.1226  35.2071 0033399  29.3116 330.9932 14.33989191231936
SL-3 R/B                
1 00877U 64053B   26024.20898445  .00000670  00000+0  15396-3 0  9993
2 00877  65.0771 101.6410 0077282 306.3972  53.0016 14.61318418260290
SL-8 R/B                
1 02802U 67045B   26024.21577105  .00000517  00000+0  15064-3 0  9997
2 02802  74.0102  71.1466 0062828  89.0987 271.7368 14.45581484 82592
SL-8 R/B                
1 03230U 68040B   26024.18201667  .00005488  00000+0  40899-3 0  9998
2 03230  74.0307  44.6108 0025994 240.1471 119.7134 15.02884105 83328
OAO 2                   
1 03597U 68110A   26024.07867898  .00000596  00000+0  16572-3 0  9990
2 03597  34.9923 154.2899 0005697 206.4939 153.5461 14.47276003 12635
ISIS 1                  
1 03669U 69009A   26023.75315556  .00000699  00000+0  49222-3 0  9993
2 03669  88.4535 160.2054 1707835 179.8359 180.3625 11.30386790343452
SERT 2                  
1 04327U 70009A   26024.13809957  .00000096  00000+0  18805-3 0  9997
2 04327  99.2705 329.6834 0004049 283.0603  88.2439 13.58724665773844
SL-3 R/B                
1 05118U 71028B   26024.24946041  .00048976  00000+0  65567-3 0  9992
2 05118  81.2365 106.7740 0018031  89.2551 271.0766 15.57598564981743
ASTEX 1                 
1 05560U 71089A   26024.26446184  .00001234  00000+0  31415-3 0  9996
2 05560  92.7157 137.3837 0013861 229.0774 130.9233 14.50709195855865
SL-8 R/B                
1 05730U 71119B   26024.10625806  .00010428  00000+0  54145-3 0  9992
2 05730  73.8861 258.9799 0555509 234.7168 120.0824 14.36652304649087
OAO 3 (COPERNICUS)      
1 06153U 72065A   26023.89139414  .00000814  00000+0  17162-3 0  9999
2 06153  35.0038 192.5404 0006264 159.8125 354.4781 14.59952704839648
