CCSDS_OMM_VERS = 2.0
CREATION_DATE  = 
ORIGINATOR     = 

OBJECT_NAME    = ATLAS CENTAUR 2
OBJECT_ID      = 1963-047A
CENTER_NAME    = EARTH
REF_FRAME      = TEME
TIME_SYSTEM    = UTC
MEAN_ELEMENT_THEORY = SGP/SGP4

EPOCH          = 2026-01-24T05:15:25.042176
MEAN_MOTION    = 14.11937800
ECCENTRICITY   = .05481691
INCLINATION    = 30.3532
RA_OF_ASC_NODE = 84.1403
ARG_OF_PERICENTER = 48.4255
MEAN_ANOMALY   = 316.2035

EPHEMERIS_TYPE = 0
CLASSIFICATION_TYPE = U
NORAD_CAT_ID   = 694
ELEMENT_SET_NO = 999
REV_AT_EPOCH   = 12533
BSTAR          = .25804653E-3
MEAN_MOTION_DOT = .2185E-4
MEAN_MOTION_DDOT = 0

CCSDS_OMM_VERS = 2.0
CREATION_DATE  = 
ORIGINATOR     = 

OBJECT_NAME    = THOR AGENA D R/B
OBJECT_ID      = 1964-002A
CENTER_NAME    = EARTH
REF_FRAME      = TEME
TIME_SYSTEM    = UTC
MEAN_ELEMENT_THEORY = SGP/SGP4

EPOCH          = 2026-01-24T06:51:07.740000
MEAN_MOTION    = 14.33989191
ECCENTRICITY   = .00333997
INCLINATION    = 99.1226
RA_OF_ASC_NODE = 35.2071
ARG_OF_PERICENTER = 29.3116
MEAN_ANOMALY   = 330.9932

EPHEMERIS_TYPE = 0
CLASSIFICATION_TYPE = U
NORAD_CAT_ID   = 733
ELEMENT_SET_NO = 999
REV_AT_EPOCH   = 23193
BSTAR          = .1600566E-3
MEAN_MOTION_DOT = .401E-5
MEAN_MOTION_DDOT = 0

CCSDS_OMM_VERS = 2.0
CREATION_DATE  = 
ORIGINATOR     = 

OBJECT_NAME    = SL-3 R/B
OBJECT_ID      = 1964-053B
CENTER_NAME    = EARTH
REF_FRAME      = TEME
TIME_SYSTEM    = UTC
MEAN_ELEMENT_THEORY = SGP/SGP4

EPOCH          = 2026-01-24T05:00:56.256480
MEAN_MOTION    = 14.61318418
ECCENTRICITY   = .00772823
INCLINATION    = 65.0771
RA_OF_ASC_NODE = 101.6410
ARG_OF_PERICENTER = 306.3972
MEAN_ANOMALY   = 53.0016

EPHEMERIS_TYPE = 0
CLASSIFICATION_TYPE = U
NORAD_CAT_ID   = 877
ELEMENT_SET_NO = 999
REV_AT_EPOCH   = 26029
BSTAR          = .15396449E-3
MEAN_MOTION_DOT = .67E-5
MEAN_MOTION_DDOT = 0

CCSDS_OMM_VERS = 2.0
CREATION_DATE  = 
ORIGINATOR     = 

OBJECT_NAME    = SL-8 R/B
OBJECT_ID      = 1967-045B
CENTER_NAME    = EARTH
REF_FRAME      = TEME
TIME_SYSTEM    = UTC
MEAN_ELEMENT_THEORY = SGP/SGP4

EPOCH          = 2026-01-24T05:10:42.618720
MEAN_MOTION    = 14.45581484
ECCENTRICITY   = .0062828
INCLINATION    = 74.0102
RA_OF_ASC_NODE = 71.1466
ARG_OF_PERICENTER = 89.0987
MEAN_ANOMALY   = 271.7368

EPHEMERIS_TYPE = 0
CLASSIFICATION_TYPE = U
NORAD_CAT_ID   = 2802
ELEMENT_SET_NO = 999
REV_AT_EPOCH   = 8259
BSTAR          = .15063997E-3
MEAN_MOTION_DOT = .517E-5
MEAN_MOTION_DDOT = 0

CCSDS_OMM_VERS = 2.0
CREATION_DATE  = 
ORIGINATOR     = 

OBJECT_NAME    = SL-8 R/B
OBJECT_ID      = 1968-040B
CENTER_NAME    = EARTH
REF_FRAME      = TEME
TIME_SYSTEM    = UTC
MEAN_ELEMENT_THEORY = SGP/SGP4

EPOCH          = 2026-01-24T04:22:06.240288
MEAN_MOTION    = 15.02884105
ECCENTRICITY   = .00259947
INCLINATION    = 74.0307
RA_OF_ASC_NODE = 44.6108
ARG_OF_PERICENTER = 240.1471
MEAN_ANOMALY   = 119.7134

EPHEMERIS_TYPE = 0
CLASSIFICATION_TYPE = U
NORAD_CAT_ID   = 3230
ELEMENT_SET_NO = 999
REV_AT_EPOCH   = 8332
BSTAR          = .40899115E-3
MEAN_MOTION_DOT = .5488E-4
MEAN_MOTION_DDOT = 0

CCSDS_OMM_VERS = 2.0
CREATION_DATE  = 
ORIGINATOR     = 

OBJECT_NAME    = OAO 2
OBJECT_ID      = 1968-110A
CENTER_NAME    = EARTH
REF_FRAME      = TEME
TIME_SYSTEM    = UTC
MEAN_ELEMENT_THEORY = SGP/SGP4

EPOCH          = 2026-01-24T01:53:17.863872
MEAN_MOTION    = 14.47276003
ECCENTRICITY   = .00056979
INCLINATION    = 34.9923
RA_OF_ASC_NODE = 154.2899
ARG_OF_PERICENTER = 206.4939
MEAN_ANOMALY   = 153.5461

EPHEMERIS_TYPE = 0
CLASSIFICATION_TYPE = U
NORAD_CAT_ID   = 3597
ELEMENT_SET_NO = 999
REV_AT_EPOCH   = 1263
BSTAR          = .1657164E-3
MEAN_MOTION_DOT = .596E-5
MEAN_MOTION_DDOT = 0

CCSDS_OMM_VERS = 2.0
CREATION_DATE  = 
ORIGINATOR     = 

OBJECT_NAME    = ISIS 1
OBJECT_ID      = 1969-009A
CENTER_NAME    = EARTH
REF_FRAME      = TEME
TIME_SYSTEM    = UTC
MEAN_ELEMENT_THEORY = SGP/SGP4

EPOCH          = 2026-01-23T18:04:32.640384
MEAN_MOTION    = 11.30386790
ECCENTRICITY   = .1707835
INCLINATION    = 88.4535
RA_OF_ASC_NODE = 160.2054
ARG_OF_PERICENTER = 179.8359
MEAN_ANOMALY   = 180.3625

EPHEMERIS_TYPE = 0
CLASSIFICATION_TYPE = U
NORAD_CAT_ID   = 3669
ELEMENT_SET_NO = 999
REV_AT_EPOCH   = 34345
BSTAR          = .49222E-3
MEAN_MOTION_DOT = .699E-5
MEAN_MOTION_DDOT = 0

CCSDS_OMM_VERS = 2.0
CREATION_DATE  = 
ORIGINATOR     = 

OBJECT_NAME    = SERT 2
OBJECT_ID      = 1970-009A
CENTER_NAME    = EARTH
REF_FRAME      = TEME
TIME_SYSTEM    = UTC
MEAN_ELEMENT_THEORY = SGP/SGP4

EPOCH          = 2026-01-24T03:18:51.802848
MEAN_MOTION    = 13.58724665
ECCENTRICITY   = .00040497
INCLINATION    = 99.2705
RA_OF_ASC_NODE = 329.6834
ARG_OF_PERICENTER = 283.0603
MEAN_ANOMALY   = 88.2439

EPHEMERIS_TYPE = 0
CLASSIFICATION_TYPE = U
NORAD_CAT_ID   = 4327
ELEMENT_SET_NO = 999
REV_AT_EPOCH   = 77384
BSTAR          = .18804763E-3
MEAN_MOTION_DOT = .96E-6
MEAN_MOTION_DDOT = 0

CCSDS_OMM_VERS = 2.0
CREATION_DATE  = 
ORIGINATOR     = 

OBJECT_NAME    = SL-3 R/B
OBJECT_ID      = 1971-028B
CENTER_NAME    = EARTH
REF_FRAME      = TEME
TIME_SYSTEM    = UTC
MEAN_ELEMENT_THEORY = SGP/SGP4

EPOCH          = 2026-01-24T05:59:13.379424
MEAN_MOTION    = 15.57598564
ECCENTRICITY   = .00180314
INCLINATION    = 81.2365
RA_OF_ASC_NODE = 106.7740
ARG_OF_PERICENTER = 89.2551
MEAN_ANOMALY   = 271.0766

EPHEMERIS_TYPE = 0
CLASSIFICATION_TYPE = U
NORAD_CAT_ID   = 5118
ELEMENT_SET_NO = 999
REV_AT_EPOCH   = 98174
BSTAR          = .65566628E-3
MEAN_MOTION_DOT = .48976E-3
MEAN_MOTION_DDOT = 0

CCSDS_OMM_VERS = 2.0
CREATION_DATE  = 
ORIGINATOR     = 

OBJECT_NAME    = ASTEX 1
OBJECT_ID      = 1971-089A
CENTER_NAME    = EARTH
REF_FRAME      = TEME
TIME_SYSTEM    = UTC
MEAN_ELEMENT_THEORY = SGP/SGP4

EPOCH          = 2026-01-24T06:20:49.502976
MEAN_MOTION    = 14.50709195
ECCENTRICITY   = .00138619
INCLINATION    = 92.7157
RA_OF_ASC_NODE = 137.3837
ARG_OF_PERICENTER = 229.0774
MEAN_ANOMALY   = 130.9233

EPHEMERIS_TYPE = 0
CLASSIFICATION_TYPE = U
NORAD_CAT_ID   = 5560
ELEMENT_SET_NO = 999
REV_AT_EPOCH   = 85586
BSTAR          = .31415023E-3
MEAN_MOTION_DOT = .1234E-4
MEAN_MOTION_DDOT = 0

CCSDS_OMM_VERS = 2.0
CREATION_DATE  = 
ORIGINATOR     = 

OBJECT_NAME    = SL-8 R/B
OBJECT_ID      = 1971-119B
CENTER_NAME    = EARTH
REF_FRAME      = TEME
TIME_SYSTEM    = UTC
MEAN_ELEMENT_THEORY = SGP/SGP4

EPOCH          = 2026-01-24T02:33:00.696384
MEAN_MOTION    = 14.36652304
ECCENTRICITY   = .05555094
INCLINATION    = 73.8861
RA_OF_ASC_NODE = 258.9799
ARG_OF_PERICENTER = 234.7168
MEAN_ANOMALY   = 120.0824

EPHEMERIS_TYPE = 0
CLASSIFICATION_TYPE = U
NORAD_CAT_ID   = 5730
ELEMENT_SET_NO = 999
REV_AT_EPOCH   = 64908
BSTAR          = .54145011E-3
MEAN_MOTION_DOT = .10428E-3
MEAN_MOTION_DDOT = 0

CCSDS_OMM_VERS = 2.0
CREATION_DATE  = 
ORIGINATOR     = 

OBJECT_NAME    = OAO 3 (COPERNICUS)
OBJECT_ID      = 1972-065A
CENTER_NAME    = EARTH
REF_FRAME      = TEME
TIME_SYSTEM    = UTC
MEAN_ELEMENT_THEORY = SGP/SGP4

EPOCH          = 2026-01-23T21:23:36.453696
MEAN_MOTION    = 14.59952704
ECCENTRICITY   = .0006264
INCLINATION    = 35.0038
RA_OF_ASC_NODE = 192.5404
ARG_OF_PERICENTER = 159.8125
MEAN_ANOMALY   = 354.4781

EPHEMERIS_TYPE = 0
CLASSIFICATION_TYPE = U
NORAD_CAT_ID   = 6153
ELEMENT_SET_NO = 999
REV_AT_EPOCH   = 83964
BSTAR          = .17162E-3
MEAN_MOTION_DOT = .814E-5
MEAN_MOTION_DDOT = 0

